A/2021 E2,e,167.4904,190.7880,342.2781,208.1198,0.0003283,0.98903242,0.0000,12/09.6830/2020,2000,g 15.0,2.0
# From MPEC 2024-GJ3
C/2021 E3 (ZTF),h,06/11.6384/2022,112.5285,104.4836,228.8233,1.000329,1.777162,2000,8.5,4.0
# From MPEC 2024-N80
A/2021 E4,e,116.3668,171.1579,48.2683,515.6824,0.0000842,0.99092900,0.0000,04/24.9215/2022,2000,g 13.5,22.0
# From MPEC 2022-QD9
C/2021 F1 (Lemmon-PANSTARRS),e,107.3109,203.4946,146.9031,244.7058,0.0002575,0.99592109,0.0000,04/06.7529/2022,2000,g 13.5,4.0
# From MPEC 2021-J72
C/2021 G1 (Leonard),e,131.5490,270.6998,107.4329,71.85478,0.0016182,0.95232796,1.8560,09/10.0/2024,2000,g 14.0,4.0
# From MPEC 2024-Q20
C/2021 G2 (ATLAS),h,09/09.2101/2024,48.4731,221.0951,343.2782,1.000254,4.982394,2000,5.5,4.0
# From MPEC 2022-X67
C/2021 G3 (PANSTARRS),e,102.8695,147.3716,10.5809,9257,0.0000011,0.99944039,0.0000,10/17.8525/2021,2000,g 10.5,4.0
# From MPEC 2021-Y10
P/2021 HS (PANSTARRS),e,12.1553,262.3616,46.1380,4.194105,0.1147480,0.80946052,129.8303,09/10.0/2024,2000,g 22.0,4.0
# From MPEC 2022-C56
C/2021 J1 (Maury-Attard),e,92.7108,88.4213,147.2557,26.27139,0.0073195,0.93387209,9.5052,09/10.0/2024,2000,g 15.5,4.0
# From MPEC 2023-XP6
C/2021 J2 (PANSTARRS),e,156.2121,23.3249,171.9292,114.1200,0.0008085,0.95879996,0.8768,09/10.0/2024,2000,g 12.0,4.0
# From MPEC 2024-F34
P/2021 J3 (ATLAS),e,14.5210,111.0742,125.7702,8.905290,0.0370879,0.44905716,70.3782,09/10.0/2024,2000,g  7.0,4.0
# From MPEC 2022-O08
C/2021 K1 (ATLAS),e,16.2729,140.9181,184.2554,12.63168,0.0219539,0.80200310,26.9084,09/10.0/2024,2000,g 11.0,4.0
# From MPEC 2022-O01
C/2021 K2 (MASTER),h,09/09.5583/2021,100.8666,282.3263,343.3260,1.000804,5.467374,2000,8.0,4.0
# From MPEC 2022-L66
C/2021 K3 (Catalina),h,02/03.8946/2022,134.7793,114.5912,182.0464,1.004469,5.230706,2000,10.0,4.0
# From MPEC 2021-W31
P/2021 L2 (Leonard),e,21.0648,266.6538,51.4791,4.048224,0.1210061,0.52074107,138.4912,09/10.0/2024,2000,g 17.0,4.0
# From MPEC 2024-H50
C/2021 L3 (Borisov),h,02/14.8119/2022,78.5570,345.0031,91.6381,1.004603,8.459053,2000,6.0,4.0
# From MPEC 2022-TA0
P/2021 N1 (ZTF),e,11.4876,301.1439,21.2376,2.979030,0.1916866,0.67585876,228.5319,09/10.0/2024,2000,g 19.0,4.0
# From MPEC 2024-GJ3
P/2021 N2 (Fuls),e,13.0611,221.7336,177.5795,6.944496,0.0538571,0.45247247,55.5089,09/10.0/2024,2000,g  9.5,4.0
# From MPEC 2022-YB4
C/2021 N3 (PANSTARRS),e,26.7533,337.5085,304.6824,143.8739,0.0005711,0.96027166,0.8476,09/10.0/2024,2000,g  8.5,4.0
# From MPEC 2022-A21
C/2021 O1 (Nishimura),e,27.5898,41.5838,74.3923,3219,0.0000054,0.99975668,0.0000,08/14.4256/2021,2000,g 10.5,4.0
# From MPEC 2022-L66
C/2021 O3 (PANSTARRS),h,04/21.1567/2022,56.8063,188.9157,299.9680,1.000043,0.285705,2000,10.5,4.0
# From MPEC 2024-F34
C/2021 P1 (PANSTARRS),e,51.6312,359.6945,40.5105,2913,0.0000063,0.99849703,0.0000,06/02.6365/2022,2000,g 11.0,4.0
# From MPEC 2024-NE4
C/2021 P2 (PANSTARRS),e,150.0614,32.0860,76.7228,7250,0.0000016,0.99930076,0.0000,01/23.0481/2023,2000,g  9.0,4.0
# From MPEC 2024-GJ3
P/2021 P3 (PANSTARRS),e,27.1608,358.2466,334.0640,4.412385,0.1063393,0.33855306,127.5790,09/10.0/2024,2000,g 14.0,4.0
# From MPEC 2023-A50
C/2021 P4 (ATLAS),e,56.3384,348.0494,175.7955,295.5061,0.0001940,0.99634796,0.0000,07/30.3500/2022,2000,g  9.5,4.0
# From MPEC 2023-E68
P/2021 PE20 (ATLAS),e,20.0002,99.6248,210.4609,3.745947,0.1359445,0.66990492,162.0197,09/10.0/2024,2000,g 17.0,4.0
# From MPEC 2023-FK0
C/2021 Q3 (ATLAS),e,77.7306,307.9136,114.1263,75.49987,0.0015024,0.93103960,1.4389,09/10.0/2024,2000,g  8.0,4.0
# From MPEC 2024-R10
C/2021 Q4 (Fuls),h,06/11.5433/2023,71.4966,183.3265,147.0775,1.002695,7.565655,2000,6.0,4.0
# From MPEC 2022-C56
P/2021 Q5 (ATLAS),e,10.7398,239.7572,180.9416,3.286922,0.1653941,0.62466275,182.9171,09/10.0/2024,2000,g 15.0,4.0
# From MPEC 2024-R10
C/2021 Q6 (PANSTARRS),h,03/25.1912/2024,161.8364,133.5580,141.0494,1.002293,8.707857,2000,6.0,4.0
# From MPEC 2023-FK0
C/2021 QM45 (PANSTARRS),e,22.8112,354.5976,72.8753,397.2498,0.0001245,0.99301290,0.0000,08/13.6788/2022,2000,g 11.0,4.0
# From MPEC 2022-X67
P/2021 R1 (PANSTARRS),e,5.5243,143.1994,220.1794,8.282660,0.0413475,0.41022521,41.4526,09/10.0/2024,2000,g 11.0,4.0
# From MPEC 2022-X67
C/2021 R2 (PANSTARRS),e,134.4838,16.3153,32.5231,5385,0.0000025,0.99864142,0.0000,12/28.0388/2021,2000,g  7.5,4.0
# From MPEC 2021-W31
P/2021 R3 (PANSTARRS),e,19.9351,304.1930,2.6586,3.770492,0.1346192,0.33110320,162.0688,09/10.0/2024,2000,g 16.0,4.0
# From MPEC 2021-W31
P/2021 R4 (Wierzchos),e,21.0207,321.2919,56.7389,5.626233,0.0738546,0.58566748,78.4414,09/10.0/2024,2000,g 16.0,4.0
# From MPEC 2024-JU4
P/2021 R5 (Rankin),e,7.8544,219.9554,167.5683,4.796549,0.0938233,0.30633550,91.1292,09/10.0/2024,2000,g 12.0,4.0
# From MPEC 2021-W31
P/2021 R6 (Groeller),e,34.9086,176.1613,220.8399,6.286674,0.0625277,0.59331492,65.2678,09/10.0/2024,2000,g 14.5,4.0
# From MPEC 2022-X67
C/2021 R7 (PANSTARRS),e,158.8674,170.1779,140.3406,902.4881,0.0000364,0.99373629,0.0000,04/16.8053/2021,2000,g 10.5,4.0
# From MPEC 2021-Y10
P/2021 R8 (Sheppard),e,2.2030,167.0731,190.8365,3.019453,0.1878502,0.29286373,200.7820,09/10.0/2024,2000,g 18.5,4.0
# From MPEC 2023-J29
C/2021 S1 (ATLAS),h,03/01.6937/2022,52.0475,299.8659,148.2576,1.002714,6.121886,2000,7.0,4.0
# From MPEC 2024-R10
C/2021 S3 (PANSTARRS),h,02/14.6997/2024,58.5327,215.6188,6.8477,1.000122,1.320132,2000,5.5,4.0
# From MPEC 2024-GJ3
C/2021 S4 (Tsuchinshan),e,17.4782,5.4729,72.9688,160.6338,0.0004841,0.95835324,0.1214,09/10.0/2024,2000,g  6.5,4.0
# From MPEC 2022-OB6
C/2021 T1 (Lemmon),e,140.3609,56.8446,51.5728,2169,0.0000098,0.99858868,0.0000,10/14.5180/2021,2000,g 12.5,4.0
# From MPEC 2023-A50
C/2021 T2 (Fuls),h,06/08.1365/2022,117.5341,223.2297,263.5710,1.000531,1.246013,2000,12.0,4.0
# From MPEC 2024-N80
C/2021 T4 (Lemmon),e,160.7783,257.8902,329.8074,14113,0.0000006,0.99989494,0.0000,07/31.5419/2023,2000,g  7.5,4.0
# From MPEC 2022-ED3
P/2021 U1 (Wierzchos),e,30.5519,246.7891,145.1930,8.535990,0.0395206,0.71292535,42.4815,09/10.0/2024,2000,g 14.5,4.0
# From MPEC 2022-L66
P/2021 U3 (Attard-Maury),e,69.9631,75.0932,335.2945,4.195728,0.1146814,0.54968979,120.5408,09/10.0/2024,2000,g 15.5,4.0
# From MPEC 2021-W31
C/2021 U4 (Leonard),e,152.8895,241.8085,237.3370,45.32973,0.0032295,0.96053863,3.2062,09/10.0/2024,2000,g 17.0,4.0
# From MPEC 2022-WQ9
C/2021 U5 (Catalina),e,39.0431,182.7190,321.4303,218.8357,0.0003045,0.98921615,0.0000,01/26.7572/2022,2000,g 13.0,4.0
# From MPEC 2022-CN4
C/2021 V1 (Rankin),e,71.4492,207.6775,195.1872,691.8723,0.0000542,0.99563930,0.0000,04/30.6105/2022,2000,g 13.0,4.0
# From MPEC 2024-JU4
P/2021 V2 (Fuls),e,12.6947,232.2758,259.8671,9.080309,0.0360208,0.61491534,21.5159,09/10.0/2024,2000,g 10.0,4.0
# From MPEC 2024-R10
C/2021 X1 (Maury-Attard),h,05/27.1701/2023,140.1010,10.5966,334.5790,1.000309,3.233830,2000,7.0,4.0
# From MPEC 2024-E08
C/2021 X2 (Bok),h,07/08.1811/2022,137.1601,228.8269,193.3410,1.001136,2.996704,2000,13.0,4.0
# From MPEC 2024-GJ3
C/2021 Y1 (ATLAS),h,04/30.7987/2023,77.1947,244.7669,245.8393,1.001318,2.032570,2000,7.0,4.0
# From MPEC 2022-YN2
C/2022 A1 (Sarneczky),e,116.5505,285.5016,201.2546,357.1057,0.0001461,0.99648604,0.0000,01/31.0494/2022,2000,g 18.0,4.0
# From MPEC 2024-P23
C/2022 A2 (PANSTARRS),h,02/18.1941/2023,108.1409,171.5870,88.3663,1.000106,1.735532,2000,9.5,4.0
# From MPEC 2024-R10
C/2022 A3 (Lemmon-ATLAS),e,88.3420,325.4689,234.8565,857.2366,0.0000393,0.99567936,0.0000,09/28.8880/2023,2000,g  8.0,4.0
# From MPEC 2022-K19
P/2022 B1 (Wierzchos),e,10.9914,325.4144,148.8899,5.467785,0.0770880,0.65348524,71.4848,09/10.0/2024,2000,g 16.5,4.0
# From MPEC 2022-YB4
A/2022 B3,e,132.0530,286.1854,150.6958,663.5952,0.0000577,0.99442253,0.0000,01/17.0069/2022,2000,g 16.5,2.0
# From MPEC 2022-GA9
C/2022 B4 (Bok),e,20.0497,340.5750,152.9685,390.4803,0.0001277,0.99647458,0.0000,01/30.1676/2022,2000,g 21.0,4.0
# From MPEC 2023-J29
P/2022 BV9 (Lemmon),e,11.9275,337.3109,16.3263,4.364146,0.1081073,0.23400722,153.2498,09/10.0/2024,2000,g  9.5,4.0
# From MPEC 2023-J29
P/2022 C1 (PANSTARRS),e,4.7626,113.1101,9.3945,7.229664,0.0507022,0.44889790,52.7344,09/10.0/2024,2000,g 12.0,4.0
# From MPEC 2023-VM5
P/2022 C2 (PANSTARRS),e,9.9837,135.2611,89.1898,6.035220,0.0664759,0.44183947,50.9245,09/10.0/2024,2000,g 12.5,4.0
# From MPEC 2023-UR6
P/2022 C3 (PANSTARRS),e,12.8221,139.0402,93.8508,9.619877,0.0330331,0.54548079,26.5128,09/10.0/2024,2000,g 11.5,4.0
# From MPEC 2022-K19
P/2022 D1 (PANSTARRS),e,44.0758,47.9571,88.6539,7.404043,0.0489216,0.54771295,54.2366,09/10.0/2024,2000,g 12.5,4.0
# From MPEC 2022-K19
C/2022 D2 (Kowalski),e,22.6689,312.3949,177.8155,381.2305,0.0001324,0.99592650,0.0000,03/27.8042/2022,2000,g 17.0,4.0
# From MPEC 2022-L66
P/2022 E1 (Christensen),e,19.0070,113.3443,114.9730,3.778647,0.1341837,0.22059842,110.4532,09/10.0/2024,2000,g 13.5,4.0
# From MPEC 2024-R10
C/2022 E2 (ATLAS),h,09/14.1353/2024,137.1318,125.3761,41.7261,1.001057,3.666271,2000,5.0,4.0
# From MPEC 2024-GJ3
C/2022 E3 (ZTF),h,01/12.6679/2023,109.1696,302.5372,145.8100,1.000020,1.112763,2000,7.5,4.0
# From MPEC 2024-PC5
C/2022 F1 (ATLAS),e,57.9915,350.6392,278.2954,4007,0.0000039,0.99850885,0.0000,08/05.1956/2022,2000,g  7.0,4.0
# From MPEC 2022-QD9
C/2022 F2 (NEOWISE),e,97.3130,58.7836,200.6178,23.89911,0.0084359,0.93350180,7.6102,09/10.0/2024,2000,g 14.5,4.0
# From MPEC 2024-JU4
C/2022 H1 (PANSTARRS),e,49.8601,6.3452,246.3002,877.5860,0.0000379,0.99123763,0.0000,01/18.9660/2024,2000,g  6.0,4.0
# From MPEC 2022-VC5
C/2022 J1 (Maury-Attard),e,105.9560,280.7827,305.6490,47.58730,0.0030024,0.96632128,2.8038,09/10.0/2024,2000,g 14.9,4.0
# From MPEC 2023-M14
C/2022 J2 (Bok),e,149.1382,252.6521,133.0823,89.98006,0.0011547,0.97970676,0.0000,10/26.8712/2022,2000,g  9.0,4.0
# From MPEC 2024-GJ3
C/2022 JK5 (PANSTARRS),e,16.8309,59.6469,247.3284,44.14823,0.0033600,0.93903286,1.6792,09/10.0/2024,2000,g 11.0,4.0
# From MPEC 2022-ST7
C/2022 K1 (Leonard),h,12/17.0105/2021,41.9680,136.3424,142.6107,1.001504,3.988373,2000,11.0,4.0
# From MPEC 2023-CD7
